ONEWEB-0379             
1 49305U 21090AC  25241.27839210  .00000204  00000+0  51653-3 0  9997
2 49305  87.9090 347.8111 0001844  95.6395 264.4945 13.14502562189219
ONEWEB-0380             
1 49306U 21090AD  25241.29045992 -.00000039  00000+0 -12897-3 0  9991
2 49306  87.9270   3.0090 0001948 103.7604 256.3746 13.19724746187926
ONEWEB-0381             
1 49307U 21090AE  25241.26741996  .00000208  00000+0  48069-3 0  9992
2 49307  87.9296 332.6266 0002184 101.4670 258.6709 13.20772094191292
ONEWEB-0382             
1 49308U 21090AF  25241.25476189  .00000036  00000+0  57030-4 0  9999
2 49308  87.9294 332.6199 0002233  97.2250 262.9137 13.20773737191284
ONEWEB-0383             
1 49309U 21090AG  25241.27204738  .00000096  00000+0  22500-3 0  9990
2 49309  87.9094 347.7918 0001918  94.9911 265.1438 13.14502360189243
ONEWEB-0384             
1 49310U 21090AH  25241.25002827 -.00000003  00000+0 -38470-4 0  9999
2 49310  87.9306 332.6437 0002402  94.8139 265.3269 13.20788099191294
ONEWEB-0385             
1 49311U 21090AJ  25241.24689483 -.00000007  00000+0 -48793-4 0  9991
2 49311  87.9286 332.6342 0002038  98.7257 261.4107 13.20771762191260
ONEWEB-0386             
1 49312U 21090AK  25241.26424982  .00000186  00000+0  42641-3 0  9996
2 49312  87.9294 332.6049 0002199  95.6233 264.5151 13.20772601191280
